[Satellite]
VERSION=1.1
NAME=EUROBIRD 1
NICKNAME=EUROBIRD 1
TLE1=1 26719U 01011A   17186.08639674  .00000151  00000-0  00000-0 0  9991
TLE2=2 26719   0.0673  30.1971 0003154  62.4052 254.8384  1.00272204 59765
